ONEWEB-0176             
1 48210U 21031A   25251.23872141  .00000191  00000+0  48138-3 0  9992
2 48210  87.9084 345.8324 0001703 101.9002 258.2319 13.14503866211276
ONEWEB-0184             
1 48211U 21031B   25251.21175464 -.00000111  00000+0 -33387-3 0  9999
2 48211  87.9094 345.8089 0000970 110.6821 249.4413 13.14502794211240
ONEWEB-0179             
1 48212U 21031C   25251.25853086  .00000346  00000+0  89923-3 0  9992
2 48212  87.9087 345.8164 0001900 102.4940 257.6403 13.14502167211291
ONEWEB-0180             
1 48213U 21031D   25251.21493009 -.00000089  00000+0 -27339-3 0  9993
2 48213  87.9097 345.8140 0001792 109.7789 250.3535 13.14503814211170
ONEWEB-0218             
1 48214U 21031E   25251.23713150  .00000144  00000+0  35441-3 0  9991
2 48214  87.9096 345.8105 0001105 124.8548 235.2686 13.14503388211333
ONEWEB-0209             
1 48215U 21031F   25251.22604334  .00000730  00000+0  19340-2 0  9994
2 48215  87.9089 345.8562 0001942 105.8512 254.2832 13.14499848211331
ONEWEB-0198             
1 48216U 21031G   25251.21028272 -.00000120  00000+0 -35962-3 0  9999
2 48216  87.9091 345.8590 0001482 118.3566 241.7714 13.14463295211442
ONEWEB-0189             
1 48217U 21031H   25251.22285455 -.00000113  00000+0 -34044-3 0  9991
2 48217  87.9084 345.8301 0001658 112.2288 247.9018 13.14503806211183
